CCSDS_OMM_VERS = 2.0
CREATION_DATE  = 
ORIGINATOR     = 

OBJECT_NAME    = UNKNOWN
OBJECT_ID      = 
CENTER_NAME    = EARTH
REF_FRAME      = TEME
TIME_SYSTEM    = UTC
MEAN_ELEMENT_THEORY = SGP/SGP4

EPOCH          = 2025-11-11T00:57:11.957472
MEAN_MOTION    = 14.45329263
ECCENTRICITY   = .0193082
INCLINATION    = 97.8410
RA_OF_ASC_NODE = 146.5668
ARG_OF_PERICENTER = 128.9830
MEAN_ANOMALY   = 232.8740

EPHEMERIS_TYPE = 0
CLASSIFICATION_TYPE = U
NORAD_CAT_ID   = 89005
ELEMENT_SET_NO = 999
REV_AT_EPOCH   = 52951
BSTAR          = .99639E-3
MEAN_MOTION_DOT = .4364E-4
MEAN_MOTION_DDOT = 0

CCSDS_OMM_VERS = 2.0
CREATION_DATE  = 
ORIGINATOR     = 

OBJECT_NAME    = UNKNOWN
OBJECT_ID      = 
CENTER_NAME    = EARTH
REF_FRAME      = TEME
TIME_SYSTEM    = UTC
MEAN_ELEMENT_THEORY = SGP/SGP4

EPOCH          = 2025-11-09T11:38:28.200768
MEAN_MOTION    = 14.93818387
ECCENTRICITY   = .0025089
INCLINATION    = 98.0496
RA_OF_ASC_NODE = 211.9071
ARG_OF_PERICENTER = 74.8905
MEAN_ANOMALY   = 285.5086

EPHEMERIS_TYPE = 0
CLASSIFICATION_TYPE = U
NORAD_CAT_ID   = 89029
ELEMENT_SET_NO = 999
REV_AT_EPOCH   = 64611
BSTAR          = .72862E-3
MEAN_MOTION_DOT = .7723E-4
MEAN_MOTION_DDOT = 0

CCSDS_OMM_VERS = 2.0
CREATION_DATE  = 
ORIGINATOR     = 

OBJECT_NAME    = UNKNOWN
OBJECT_ID      = 
CENTER_NAME    = EARTH
REF_FRAME      = TEME
TIME_SYSTEM    = UTC
MEAN_ELEMENT_THEORY = SGP/SGP4

EPOCH          = 2025-10-25T01:40:17.698656
MEAN_MOTION    = 13.03990385
ECCENTRICITY   = .0146349
INCLINATION    = 100.4545
RA_OF_ASC_NODE = 236.3345
ARG_OF_PERICENTER = 216.5228
MEAN_ANOMALY   = 142.5827

EPHEMERIS_TYPE = 0
CLASSIFICATION_TYPE = U
NORAD_CAT_ID   = 89101
ELEMENT_SET_NO = 999
REV_AT_EPOCH   = 54850
BSTAR          = .77426E-3
MEAN_MOTION_DOT = .216E-5
MEAN_MOTION_DDOT = 0

CCSDS_OMM_VERS = 2.0
CREATION_DATE  = 
ORIGINATOR     = 

OBJECT_NAME    = UNKNOWN
OBJECT_ID      = 
CENTER_NAME    = EARTH
REF_FRAME      = TEME
TIME_SYSTEM    = UTC
MEAN_ELEMENT_THEORY = SGP/SGP4

EPOCH          = 2025-11-10T08:55:15.821760
MEAN_MOTION    = 8.86217925
ECCENTRICITY   = .2929063
INCLINATION    = 63.3757
RA_OF_ASC_NODE = 87.9552
ARG_OF_PERICENTER = 319.6986
MEAN_ANOMALY   = 21.9360

EPHEMERIS_TYPE = 0
CLASSIFICATION_TYPE = U
NORAD_CAT_ID   = 89132
ELEMENT_SET_NO = 999
REV_AT_EPOCH   = 32224
BSTAR          = .38444E-2
MEAN_MOTION_DOT = .277E-4
MEAN_MOTION_DDOT = 0

CCSDS_OMM_VERS = 2.0
CREATION_DATE  = 
ORIGINATOR     = 

OBJECT_NAME    = UNKNOWN
OBJECT_ID      = 
CENTER_NAME    = EARTH
REF_FRAME      = TEME
TIME_SYSTEM    = UTC
MEAN_ELEMENT_THEORY = SGP/SGP4

EPOCH          = 2025-11-11T07:38:27.705408
MEAN_MOTION    = 14.62661283
ECCENTRICITY   = .0094113
INCLINATION    = 98.2433
RA_OF_ASC_NODE = 244.0659
ARG_OF_PERICENTER = 152.7461
MEAN_ANOMALY   = 207.8725

EPHEMERIS_TYPE = 0
CLASSIFICATION_TYPE = U
NORAD_CAT_ID   = 89146
ELEMENT_SET_NO = 999
REV_AT_EPOCH   = 62428
BSTAR          = .11019E-2
MEAN_MOTION_DOT = .5926E-4
MEAN_MOTION_DDOT = 0

CCSDS_OMM_VERS = 2.0
CREATION_DATE  = 
ORIGINATOR     = 

OBJECT_NAME    = UNKNOWN
OBJECT_ID      = 
CENTER_NAME    = EARTH
REF_FRAME      = TEME
TIME_SYSTEM    = UTC
MEAN_ELEMENT_THEORY = SGP/SGP4

EPOCH          = 2025-11-11T11:49:04.865088
MEAN_MOTION    = 15.33533697
ECCENTRICITY   = .0041875
INCLINATION    = 97.6644
RA_OF_ASC_NODE = 329.9123
ARG_OF_PERICENTER = 170.1651
MEAN_ANOMALY   = 190.0420

EPHEMERIS_TYPE = 0
CLASSIFICATION_TYPE = U
NORAD_CAT_ID   = 89161
ELEMENT_SET_NO = 999
REV_AT_EPOCH   = 54378
BSTAR          = .26703E-2
MEAN_MOTION_DOT = .89839E-3
MEAN_MOTION_DDOT = 0

CCSDS_OMM_VERS = 2.0
CREATION_DATE  = 
ORIGINATOR     = 

OBJECT_NAME    = UNKNOWN
OBJECT_ID      = 
CENTER_NAME    = EARTH
REF_FRAME      = TEME
TIME_SYSTEM    = UTC
MEAN_ELEMENT_THEORY = SGP/SGP4

EPOCH          = 2025-11-06T13:25:17.304384
MEAN_MOTION    = 14.44728547
ECCENTRICITY   = .0299972
INCLINATION    = 82.0637
RA_OF_ASC_NODE = 255.8555
ARG_OF_PERICENTER = 32.7390
MEAN_ANOMALY   = 329.2000

EPHEMERIS_TYPE = 0
CLASSIFICATION_TYPE = U
NORAD_CAT_ID   = 89172
ELEMENT_SET_NO = 999
REV_AT_EPOCH   = 59666
BSTAR          = .50523E-2
MEAN_MOTION_DOT = .30689E-3
MEAN_MOTION_DDOT = 0

CCSDS_OMM_VERS = 2.0
CREATION_DATE  = 
ORIGINATOR     = 

OBJECT_NAME    = UNKNOWN
OBJECT_ID      = 
CENTER_NAME    = EARTH
REF_FRAME      = TEME
TIME_SYSTEM    = UTC
MEAN_ELEMENT_THEORY = SGP/SGP4

EPOCH          = 2025-10-31T16:59:12.233472
MEAN_MOTION    = 13.73716333
ECCENTRICITY   = .0031017
INCLINATION    = 82.9179
RA_OF_ASC_NODE = 300.2932
ARG_OF_PERICENTER = 259.1924
MEAN_ANOMALY   = 100.5739

EPHEMERIS_TYPE = 0
CLASSIFICATION_TYPE = U
NORAD_CAT_ID   = 89177
ELEMENT_SET_NO = 999
REV_AT_EPOCH   = 5705
BSTAR          = .12562E-3
MEAN_MOTION_DOT = .132E-5
MEAN_MOTION_DDOT = 0

CCSDS_OMM_VERS = 2.0
CREATION_DATE  = 
ORIGINATOR     = 

OBJECT_NAME    = UNKNOWN
OBJECT_ID      = 
CENTER_NAME    = EARTH
REF_FRAME      = TEME
TIME_SYSTEM    = UTC
MEAN_ELEMENT_THEORY = SGP/SGP4

EPOCH          = 2025-11-07T13:32:15.618624
MEAN_MOTION    = 13.81527682
ECCENTRICITY   = .0129658
INCLINATION    = 99.2159
RA_OF_ASC_NODE = 223.4479
ARG_OF_PERICENTER = 250.5993
MEAN_ANOMALY   = 108.1108

EPHEMERIS_TYPE = 0
CLASSIFICATION_TYPE = U
NORAD_CAT_ID   = 89183
ELEMENT_SET_NO = 999
REV_AT_EPOCH   = 60211
BSTAR          = .6718E-3
MEAN_MOTION_DOT = .719E-5
MEAN_MOTION_DDOT = 0

CCSDS_OMM_VERS = 2.0
CREATION_DATE  = 
ORIGINATOR     = 

OBJECT_NAME    = UNKNOWN
OBJECT_ID      = 
CENTER_NAME    = EARTH
REF_FRAME      = TEME
TIME_SYSTEM    = UTC
MEAN_ELEMENT_THEORY = SGP/SGP4

EPOCH          = 2025-11-09T03:30:46.433664
MEAN_MOTION    = 14.78668977
ECCENTRICITY   = .0008773
INCLINATION    = 98.3898
RA_OF_ASC_NODE = 176.3809
ARG_OF_PERICENTER = 247.3344
MEAN_ANOMALY   = 112.6938

EPHEMERIS_TYPE = 0
CLASSIFICATION_TYPE = U
NORAD_CAT_ID   = 89184
ELEMENT_SET_NO = 999
REV_AT_EPOCH   = 48720
BSTAR          = .43769E-2
MEAN_MOTION_DOT = .3219E-3
MEAN_MOTION_DDOT = 0

CCSDS_OMM_VERS = 2.0
CREATION_DATE  = 
ORIGINATOR     = 

OBJECT_NAME    = UNKNOWN
OBJECT_ID      = 
CENTER_NAME    = EARTH
REF_FRAME      = TEME
TIME_SYSTEM    = UTC
MEAN_ELEMENT_THEORY = SGP/SGP4

EPOCH          = 2025-11-04T10:46:55.970688
MEAN_MOTION    = 13.91529292
ECCENTRICITY   = .0226922
INCLINATION    = 98.7820
RA_OF_ASC_NODE = 183.5985
ARG_OF_PERICENTER = 231.6129
MEAN_ANOMALY   = 126.4457

EPHEMERIS_TYPE = 0
CLASSIFICATION_TYPE = U
NORAD_CAT_ID   = 89213
ELEMENT_SET_NO = 999
REV_AT_EPOCH   = 44734
BSTAR          = .41729E-3
MEAN_MOTION_DOT = .609E-5
MEAN_MOTION_DDOT = 0

CCSDS_OMM_VERS = 2.0
CREATION_DATE  = 
ORIGINATOR     = 

OBJECT_NAME    = UNKNOWN
OBJECT_ID      = 
CENTER_NAME    = EARTH
REF_FRAME      = TEME
TIME_SYSTEM    = UTC
MEAN_ELEMENT_THEORY = SGP/SGP4

EPOCH          = 2025-11-11T08:03:05.256864
MEAN_MOTION    = 9.23945846
ECCENTRICITY   = .2840579
INCLINATION    = 62.4774
RA_OF_ASC_NODE = 44.4522
ARG_OF_PERICENTER = 97.7989
MEAN_ANOMALY   = 295.0452

EPHEMERIS_TYPE = 0
CLASSIFICATION_TYPE = U
NORAD_CAT_ID   = 89251
ELEMENT_SET_NO = 999
REV_AT_EPOCH   = 37028
BSTAR          = .83877E-2
MEAN_MOTION_DOT = .14643E-3
MEAN_MOTION_DDOT = 0

