UNKNOWN                 
1 89005U          25315.03972173  .00004364  00000+0  99639-3 0  9995
2 89005  97.8410 146.5668 0193082 128.9830 232.8740 14.45329263529510
UNKNOWN                 
1 89029U          25313.48504862  .00007723  00000+0  72862-3 0  9995
2 89029  98.0496 211.9071 0025089  74.8905 285.5086 14.93818387646118
UNKNOWN                 
1 89101U          25298.06964929  .00000216  00000+0  77426-3 0  9997
2 89101 100.4545 236.3345 0146349 216.5228 142.5827 13.03990385548501
UNKNOWN                 
1 89132U          25314.37171090  .00002770  00000+0  38444-2 0  9996
2 89132  63.3757  87.9552 2929063 319.6986  21.9360  8.86217925322247
UNKNOWN                 
1 89146U          25315.31837622  .00005926  00000+0  11019-2 0  9991
2 89146  98.2433 244.0659 0094113 152.7461 207.8725 14.62661283624285
UNKNOWN                 
1 89161U          25315.49241742  .00089839  00000+0  26703-2 0  9990
2 89161  97.6644 329.9123 0041875 170.1651 190.0420 15.33533697543786
UNKNOWN                 
1 89172U          25310.55922806  .00030689  00000+0  50523-2 0  9997
2 89172  82.0637 255.8555 0299972  32.7390 329.2000 14.44728547596666
UNKNOWN                 
1 89177U          25304.70778048  .00000132  00000+0  12562-3 0  9991
2 89177  82.9179 300.2932 0031017 259.1924 100.5739 13.73716333 57052
UNKNOWN                 
1 89183U          25311.56406966  .00000719  00000+0  67180-3 0  9994
2 89183  99.2159 223.4479 0129658 250.5993 108.1108 13.81527682602113
UNKNOWN                 
1 89184U          25313.14637076  .00032190  00000+0  43769-2 0  9993
2 89184  98.3898 176.3809 0008773 247.3344 112.6938 14.78668977487207
UNKNOWN                 
1 89213U          25308.44925892  .00000609  00000+0  41729-3 0  9994
2 89213  98.7820 183.5985 0226922 231.6129 126.4457 13.91529292447349
UNKNOWN                 
1 89251U          25315.33547751  .00014643  00000+0  83877-2 0  9998
2 89251  62.4774  44.4522 2840579  97.7989 295.0452  9.23945846370289
